[{"OBJECT_NAME":"STARLINK-31356","OBJECT_ID":"2024-031D","EPOCH":"2026-03-09T22:57:02.865888","MEAN_MOTION":15.30192166,"ECCENTRICITY":0.00012234,"INCLINATION":53.1588,"RA_OF_ASC_NODE":267.6032,"ARG_OF_PERICENTER":80.6378,"MEAN_ANOMALY":279.4761,"EPHEMERIS_TYPE":0,"CLASSIFICATION_TYPE":"U","NORAD_CAT_ID":58968,"ELEMENT_SET_NO":999,"REV_AT_EPOCH":11696,"BSTAR":1.3017387e-5,"MEAN_MOTION_DOT":2.6e-7,"MEAN_MOTION_DDOT":0},{"OBJECT_NAME":"OBJECT L","OBJECT_ID":"2024-024L","EPOCH":"2026-03-09T22:36:05.522976","MEAN_MOTION":15.29373491,"ECCENTRICITY":0.00073185,"INCLINATION":97.3169,"RA_OF_ASC_NODE":137.7038,"ARG_OF_PERICENTER":167.6369,"MEAN_ANOMALY":192.5052,"EPHEMERIS_TYPE":0,"CLASSIFICATION_TYPE":"U","NORAD_CAT_ID":58927,"ELEMENT_SET_NO":999,"REV_AT_EPOCH":9318,"BSTAR":0.00043092344,"MEAN_MOTION_DOT":0.00012217,"MEAN_MOTION_DDOT":0}]
